ORBCOMM FM37            
1 33064U 08031E   25149.18736718  .00001452  00000+0  21920-3 0  9998
2 33064  48.4406  73.9548 0005755 292.6934 221.1886 14.79708263911238
ORBCOMM FM40            
1 33065U 08031F   25149.46854661  .00002082  00000+0  28682-3 0  9990
2 33065  48.4422  56.9671 0006791 306.0252 224.2882 14.81944463911382
VESSELSAT 1             
1 37840U 11058C   25149.15163135  .00000356  00000+0  49831-4 0  9995
2 37840  19.9606 209.0741 0013622 337.8926  22.0890 14.11350819703611
ORBCOMM FM109           
1 40086U 14040A   25149.27373482  .00000645  00000+0  17522-3 0  9998
2 40086  47.0028 105.6154 0002440 267.4779  92.5827 14.58148794578302
ORBCOMM FM107           
1 40087U 14040B   25149.30324370  .00000664  00000+0  17904-3 0  9990
2 40087  47.0044 106.4480 0001364 233.3122 126.7639 14.58214197578380
ORBCOMM FM106           
1 40088U 14040C   25149.53339308  .00000974  00000+0  19428-3 0  9990
2 40088  47.0610 288.9585 0016955 337.2542  22.7597 14.69408047580735
ORBCOMM FM111           
1 40089U 14040D   25149.39616309  .00002422  00000+0  29533-3 0  9992
2 40089  46.9995 142.3191 0029394 101.8953 258.5242 14.86204725587434
ORBCOMM FM104           
1 40090U 14040E   25149.33946018  .00000414  00000+0  12979-3 0  9996
2 40090  47.0035 139.6583 0015438 119.6924 240.5499 14.56621724577877
